NUSAT-1 (FRESCO)        
1 41557U 16033B   23153.76977700  .00061225  00000+0  81842-3 0  9993
2 41557  97.3882 261.1041 0007898 186.2161 173.8998 15.57817618391381
NUSAT-2 (BATATA)        
1 41558U 16033C   23153.72239098  .00072793  00000+0  85201-3 0  9996
2 41558  97.4159 269.0256 0007665 181.4981 178.6255 15.61288999391719
CARTOSAT-2C             
1 41599U 16040A   23153.72733101  .00006053  00000+0  28971-3 0  9990
2 41599  97.4373 214.2030 0013314  46.0958 314.1373 15.19257287385116
SATHYABAMASAT           
1 41600U 16040B   23153.57336733  .00235515  00000+0  14595-2 0  9999
2 41600  97.1556 207.5051 0006055 234.0805 125.9900 15.76361306386948
LAPAN-A3                
1 41603U 16040E   23153.73051694  .00002763  00000+0  12230-3 0  9992
2 41603  97.1663 179.9627 0012984  15.9496 344.2148 15.22385273385298
BIROS                   
1 41604U 16040F   23153.56979865  .00007283  00000+0  25963-3 0  9992
2 41604  97.1638 189.7553 0009478 341.1196  18.9692 15.29150727385866
SWAYAM                  
1 41607U 16040J   23153.70593386  .00110327  00000+0  11337-2 0  9994
2 41607  97.1526 204.2523 0004491 246.2788 113.8001 15.64534705386745
BEESAT-4                
1 41619U 16040W   23153.09845066  .00078780  00000+0  10565-2 0  9992
2 41619  97.1592 202.5727 0003229 259.1507 100.9386 15.57692953374526
3CAT-2                  
1 41732U 16051B   23153.77403416  .00039593  00000+0  65350-3 0  9996
2 41732  97.3922  85.1828 0011208 103.2242 257.0261 15.52099122379243
PRATHAM                 
1 41783U 16059A   23153.53278926  .00000836  00000+0  16722-3 0  9997
2 41783  97.8693 185.2990 0033954 144.9924 215.3520 14.63935002356834
ALSAT 1N                
1 41789U 16059G   23153.67225267  .00001040  00000+0  19966-3 0  9999
2 41789  97.8686 190.7935 0029080 125.5375 234.8547 14.65395080357140
CARTOSAT-2D             
1 41948U 17008A   23153.49450679  .00006064  00000+0  29057-3 0  9991
2 41948  97.4154 213.0219 0006619 170.8657 189.2699 15.19269159348942
NAYIF-1 (EO-88)         
1 42017U 17008BX  23153.43053986  .00181391  00000+0  12162-2 0  9998
2 42017  97.2105 224.1636 0002603 181.5476 178.5781 15.74709600351147
ZHUHAI-1 02 (CAS-4B)    
1 42759U 17034B   23153.57470407  .00007104  00000+0  36190-3 0  9993
2 42759  43.0139 196.9070 0010713   0.9100 359.1766 15.17199012329415
ZHUHAI-1 01 (CAS-4A)    
1 42761U 17034D   23153.59085803  .00007130  00000+0  36305-3 0  9997
2 42761  43.0135 195.3487 0011376   2.6909 357.3999 15.17206300329429
UCLSAT                  
1 42765U 17036A   23153.09667984  .00053905  00000+0  95980-3 0  9999
2 42765  97.1421 192.1587 0008412 137.4439 222.7467 15.49921504331545
NIUSAT                  
1 42766U 17036B   23153.56614416  .00024389  00000+0  63893-3 0  9996
2 42766  97.1571 185.2115 0011989 147.8188 212.3792 15.38614325330364
CARTOSAT-2E             
1 42767U 17036C   23153.70929917  .00006335  00000+0  30335-3 0  9994
2 42767  97.4049 213.5964 0006757 228.1628 131.9030 15.19277296329544
AALTO-1                 
1 42775U 17036L   23153.53571834  .00016270  00000+0  48007-3 0  9999
2 42775  97.1526 184.0081 0011464 149.5229 210.6684 15.34996284330270
URSA MAIOR              
1 42776U 17036M   23153.55150766  .00019702  00000+0  54772-3 0  9998
2 42776  97.1538 185.3182 0011232 146.2222 213.9741 15.36826125330346
COMPASS 2               
1 42777U 17036N   23153.36122245  .00358626  00000+0  15728-2 0  9997
2 42777  97.1380 199.2779 0006704 175.1856 184.9480 15.83684412331183
MAX VALIER SAT          
1 42778U 17036P   23153.59759246  .00021811  00000+0  58019-3 0  9994
2 42778  97.1562 188.7916 0010117 144.4856 215.7065 15.38186630330487
PEGASUS                 
1 42784U 17036V   23153.59222894  .00037609  00000+0  76599-3 0  9990
2 42784  97.1480 191.1975 0009132 140.1623 220.0299 15.46115149330727
SUCHAI                  
1 42788U 17036Z   23153.57377321  .00067800  00000+0  99263-3 0  9997
2 42788  97.1450 194.7457 0008259 138.4656 221.7227 15.55324795331029
SKCUBE                  
1 42789U 17036AA  23153.53443840  .00050795  00000+0  88982-3 0  9995
2 42789  97.1462 193.2293 0008538 137.0227 223.1693 15.50396957330840
VZLUSAT-1               
1 42790U 17036AB  23153.10328069  .01741015  23966-2  18936-2 0  9998
2 42790  97.1292 201.6534 0010341 231.8575 128.1779 16.10370751331345
ROBUSTA 1B              
1 42792U 17036AD  23153.59275283  .00060996  00000+0  95295-3 0  9998
2 42792  97.1434 194.4695 0007837 134.8360 225.3532 15.53568298330945
D-SAT                   
1 42794U 17036AF  23153.48489240  .00005342  00000+0  42465-3 0  9993
2 42794  97.4636 146.2290 0116531 352.2701   7.6720 14.95594540323730
NORSAT 2                
1 42828U 17042D   23153.53675877  .00003689  00000+0  33648-3 0  9992
2 42828  97.3951 355.1315 0011593 269.6215  90.3678 14.95618837320430
TECHNOSAT               
1 42829U 17042E   23153.78560222  .00002163  00000+0  20996-3 0  9995
2 42829  97.3899 352.0914 0011765 274.7283  85.2594 14.93557688320340
2017-042F               
1 42830U 17042F   23153.52517520  .00011683  00000+0  89544-3 0  9993
2 42830  97.4072 359.4046 0011433 235.7154 124.2989 15.01930369320678
FLYING LAPTOP           
1 42831U 17042G   23153.54613044  .00001356  00000+0  13518-3 0  9998
2 42831  97.3921 352.1753 0011869 276.5297  83.4572 14.93043756320309
CORVUS BC2              
1 42846U 17042X   23153.53385545  .00002044  00000+0  19339-3 0  9997
2 42846  97.3877 355.5756 0007331 261.0860  98.9531 14.94649831320537
CORVUS BC1              
1 42847U 17042Y   23153.52597949  .00002426  00000+0  22819-3 0  9991
2 42847  97.3875 355.9224 0006928 259.2993 100.7448 14.94739106320542
CZ-4C R/B               
1 43012U 17072C   23153.56280394  .00000365  00000+0  85205-4 0  9995
2 43012  98.6477 208.8577 0125775 326.3993  32.9273 14.56731166294823
RADFXSAT (FOX-1B)       
1 43017U 17073E   23153.37233451  .00006823  00000+0  47591-3 0  9992
2 43017  97.6332  38.2987 0235546 118.0198 244.5063 14.85870228298982
EAGLESAT 1              
1 43018U 17073F   23153.23347208  .00012656  00000+0  80249-3 0  9992
2 43018  97.6388  41.9293 0218449 106.4656 256.0690 14.91358674299065
INS-1C                  
1 43116U 18004F   23153.73270034  .00045552  00000+0  79883-3 0  9996
2 43116  97.3377 235.0502 0006574 172.5102 187.6249 15.50408072300136
FLOCK 3P'-3             
1 43119U 18004J   23153.21129645  .00479036  00000+0  33010-2 0  9992
2 43119  97.3209 232.1592 0011845 233.9602 126.0565 15.73166707299927
FLOCK 3P'-2             
1 43120U 18004K   23153.18838093  .00224012  00000+0  28058-2 0  9992
2 43120  97.3323 230.6095 0009981 220.1446 139.9074 15.58970535299809
FLOCK 3P'-4             
1 43122U 18004M   23153.19187033  .00192134  00000+0  27163-2 0  9991
2 43122  97.3348 230.6464 0010146 223.1382 136.9079 15.55815899299793
PICSAT                  
1 43132U 18004X   23153.45824196  .00069578  00000+0  98983-3 0  9993
2 43132  97.3298 236.2814 0006140 174.1752 185.9575 15.56117861300258
CNUSAIL-1               
1 43133U 18004Y   23153.18086969  .00025766  00000+0  60043-3 0  9999
2 43133  97.3287 230.6435 0006875 182.4443 177.6772 15.42218682299890
2018-004Z               
1 43134U 18004Z   23153.75400119  .00046203  00000+0  81670-3 0  9998
2 43134  97.3309 234.4924 0006331 173.9092 186.2238 15.50181656300168
FOX-1D (AO-92)          
1 43137U 18004AC  23153.17810242  .00031385  00000+0  66434-3 0  9995
2 43137  97.3295 232.2183 0006438 181.1838 178.9396 15.45044716299995
XIAOXIANG-2             
1 43155U 18008A   23153.75347812  .00017539  00000+0  70113-3 0  9995
2 43155  97.2996 206.6235 0012407   7.9273 352.2159 15.25099200296454
ZHOU ENLAI              
1 43156U 18008B   23153.76863028  .00019715  00000+0  77602-3 0  9997
2 43156  97.3042 206.7319 0010065  10.0620 350.0818 15.25617490296388
QUANTUTONG 1            
1 43158U 18008D   23153.67624855  .00014606  00000+0  63015-3 0  9999
2 43158  97.3046 203.6472 0010254  14.6607 345.4925 15.22586624296215
S-NET D                 
1 43186U 18014G   23153.31096698  .00002519  00000+0  20491-3 0  9997
2 43186  97.6350  57.3968 0014288 206.9041 153.1443 15.00376914291321
S-NET B                 
1 43187U 18014H   23153.31198020  .00002546  00000+0  20711-3 0  9995
2 43187  97.6338  57.3280 0014508 205.4462 154.6049 15.00366226291324
S-NET A                 
1 43188U 18014J   23153.51220362  .00002779  00000+0  22562-3 0  9997
2 43188  97.6345  57.6110 0014538 204.8645 155.1880 15.00370660291356
S-NET C                 
1 43189U 18014K   23153.51429240  .00002883  00000+0  23396-3 0  9996
2 43189  97.6327  57.5047 0014882 201.4466 158.6136 15.00353937289909
SHAONIAN XING           
1 43199U 18015H   23153.26755427  .00144709  00000+0  10717-2 0  9995
2 43199  97.5420 311.7393 0009049 220.1823 139.8772 15.72430712297470
LUOJIA-1 01             
1 43485U 18048B   23153.77607028  .00002280  00000+0  31650-3 0  9995
2 43485  97.9056 234.1343 0011882 142.0589 218.1462 14.78832358269618
CZ-4B R/B               
1 43656U 18081B   23153.75359524  .00000357  00000+0  12576-3 0  9994
2 43656  99.4454 321.9186 0206895 218.3360 140.2962 14.30834336240447
CUBEBEL-1 (BSUSAT-1)    
1 43666U 18083E   23153.75597272  .00030472  00000+0  83622-3 0  9992
2 43666  97.3808 185.2826 0011002 162.7634 197.3986 15.37148984254988
CHANGSHAGAOXIN (TY 4-01)
1 43669U 18083H   23153.75864487  .00024112  00000+0  73638-3 0  9990
2 43669  97.3797 179.9922 0008670 160.2913 199.8667 15.33858974254734
TEN-KOH                 
1 43677U 18084G   23153.60487767  .00003262  00000+0  31932-3 0  9990
2 43677  98.0112 293.2284 0014933 191.4182 168.6700 14.92957915249887
DIWATA-2B               
1 43678U 18084H   23153.71623929  .00001247  00000+0  12448-3 0  9997
2 43678  98.0210 297.3962 0009021 202.0602 158.0230 14.93381368250105
